{"type": "FeatureCollection", "features": [ {"type": "Feature", "properties": {"norad_id": 37912, "name": "FENGYUN 1C DEB", "group": "fengyun-1c-debris", "lat": -79.84304312353636, "lon": 17.6220191172832, "alt_km": 920.6463725744743, "timestamp": "2025-12-09T21:34:11.697707+00:00", "meta": {"OBJECT_NAME": "FENGYUN 1C DEB", "OBJECT_ID": "1999-025ENM", "EPOCH": "2025-12-07T08:43:49.203552", "MEAN_MOTION": 14.11418958, "ECCENTRICITY": 0.00911955, "INCLINATION": 99.2302, "RA_OF_ASC_NODE": 309.8335, "ARG_OF_PERICENTER": 74.9151, "MEAN_ANOMALY": 286.2087, "EPHEMERIS_TYPE": 0, "CLASSIFICATION_TYPE": "U", "NORAD_CAT_ID": 37912, "ELEMENT_SET_NO": 999, "REV_AT_EPOCH": 77212, "BSTAR": 0.0037768803, "MEAN_MOTION_DOT": 7.072e-05, "MEAN_MOTION_DDOT": 0}, "tle": {"line1": "1 37912U 99025ENM 25341.36376393  .00007072  00000+0  37769-2 0  9991", "line2": "2 37912  99.2302 309.8335 0091195  74.9151 286.2087 14.11418958772126"}}, "geometry": {"type": "Point", "coordinates": [17.6220191172832, -79.84304312353636]}}, {"type": "Feature", "properties": {"norad_id": 37918, "name": "FENGYUN 1C DEB", "group": "fengyun-1c-debris", "lat": 76.50686303493927, "lon": -108.26000578506641, "alt_km": 803.2259440004755, "timestamp": "2025-12-09T21:34:11.697717+00:00", "meta": {"OBJECT_NAME": "FENGYUN 1C DEB", "OBJECT_ID": "1999-025ENT", "EPOCH": "2025-12-08T03:20:36.333888", "MEAN_MOTION": 14.34353658, "ECCENTRICITY": 0.0055221, "INCLINATION": 99.0272, "RA_OF_ASC_NODE": 291.3959, "ARG_OF_PERICENTER": 297.4796, "MEAN_ANOMALY": 62.078, "EPHEMERIS_TYPE": 0, "CLASSIFICATION_TYPE": "U", "NORAD_CAT_ID": 37918, "ELEMENT_SET_NO": 999, "REV_AT_EPOCH": 3476, "BSTAR": 0.0011500332, "MEAN_MOTION_DOT": 3.242e-05, "MEAN_MOTION_DDOT": 0}, "tle": {"line1": "1 37918U 99025ENT 25342.13930942  .00003242  00000+0  11500-2 0  9999", "line2": "2 37918  99.0272 291.3959 0055221 297.4796  62.0780 14.34353658 34761"}}, "geometry": {"type": "Point", "coordinates": [-108.26000578506641, 76.50686303493927]}}, {"type": "Feature", "properties": {"norad_id": 37919, "name": "FENGYUN 1C DEB", "group": "fengyun-1c-debris", "lat": -29.04628149365084, "lon": -73.16957690473167, "alt_km": 786.9701683825606, "timestamp": "2025-12-09T21:34:11.697728+00:00", "meta": {"OBJECT_NAME": "FENGYUN 1C DEB", "OBJECT_ID": "1999-025ENU", "EPOCH": "2025-12-05T06:37:21.613440", "MEAN_MOTION": 14.26732064, "ECCENTRICITY": 0.00501439, "INCLINATION": 99.0565, "RA_OF_ASC_NODE": 276.9671, "ARG_OF_PERICENTER": 37.6316, "MEAN_ANOMALY": 322.8355, "EPHEMERIS_TYPE": 0, "CLASSIFICATION_TYPE": "U", "NORAD_CAT_ID": 37919, "ELEMENT_SET_NO": 999, "REV_AT_EPOCH": 64802, "BSTAR": 0.00094687739, "MEAN_MOTION_DOT": 2.276e-05, "MEAN_MOTION_DDOT": 0}, "tle": {"line1": "1 37919U 99025ENU 25339.27594460  .00002276  00000+0  94688-3 0  9997", "line2": "2 37919  99.0565 276.9671 0050143  37.6316 322.8355 14.26732064648025"}}, "geometry": {"type": "Point", "coordinates": [-73.16957690473167, -29.04628149365084]}}, {"type": "Feature", "properties": {"norad_id": 37921, "name": "FENGYUN 1C DEB", "group": "fengyun-1c-debris", "lat": -47.585348690496026, "lon": -164.97741212831093, "alt_km": 949.6127804638636, "timestamp": "2025-12-09T21:34:11.697738+00:00", "meta": {"OBJECT_NAME": "FENGYUN 1C DEB", "OBJECT_ID": "1999-025ENW", "EPOCH": "2025-12-06T21:55:07.492224", "MEAN_MOTION": 13.9515085, "ECCENTRICITY": 0.00843998, "INCLINATION": 99.0229, "RA_OF_ASC_NODE": 22.1181, "ARG_OF_PERICENTER": 114.4559, "MEAN_ANOMALY": 246.5435, "EPHEMERIS_TYPE": 0, "CLASSIFICATION_TYPE": "U", "NORAD_CAT_ID": 37921, "ELEMENT_SET_NO": 999, "REV_AT_EPOCH": 63066, "BSTAR": 0.00047337206, "MEAN_MOTION_DOT": 6.15e-06, "MEAN_MOTION_DDOT": 0}, "tle": {"line1": "1 37921U 99025ENW 25340.91328116  .00000615  00000+0  47337-3 0  9990", "line2": "2 37921  99.0229  22.1181 0084399 114.4559 246.5435 13.95150850630669"}}, "geometry": {"type": "Point", "coordinates": [-164.97741212831093, -47.585348690496026]}}, {"type": "Feature", "properties": {"norad_id": 37925, "name": "FENGYUN 1C DEB", "group": "fengyun-1c-debris", "lat": -29.670690825412564, "lon": 27.445077601627116, "alt_km": 666.5433983163584, "timestamp": "2025-12-09T21:34:11.697748+00:00", "meta": {"OBJECT_NAME": "FENGYUN 1C DEB", "OBJECT_ID": "1999-025EPA", "EPOCH": "2025-12-03T08:51:08.944992", "MEAN_MOTION": 14.79858027, "ECCENTRICITY": 0.0057842, "INCLINATION": 99.0872, "RA_OF_ASC_NODE": 205.2959, "ARG_OF_PERICENTER": 11.9768, "MEAN_ANOMALY": 348.28, "EPHEMERIS_TYPE": 0, "CLASSIFICATION_TYPE": "U", "NORAD_CAT_ID": 37925, "ELEMENT_SET_NO": 999, "REV_AT_EPOCH": 65544, "BSTAR": 0.0022468503, "MEAN_MOTION_DOT": 0.00017399, "MEAN_MOTION_DDOT": 0}, "tle": {"line1": "1 37925U 99025EPA 25337.36885353  .00017399  00000+0  22469-2 0  9995", "line2": "2 37925  99.0872 205.2959 0057842  11.9768 348.2800 14.79858027655443"}}, "geometry": {"type": "Point", "coordinates": [27.445077601627116, -29.670690825412564]}}, {"type": "Feature", "properties": {"norad_id": 37926, "name": "FENGYUN 1C DEB", "group": "fengyun-1c-debris", "lat": -81.14020967122308, "lon": 127.13550568787346, "alt_km": 789.7339324289751, "timestamp": "2025-12-09T21:34:11.697759+00:00", "meta": {"OBJECT_NAME": "FENGYUN 1C DEB", "OBJECT_ID": "1999-025EPB", "EPOCH": "2025-12-09T03:44:23.386272", "MEAN_MOTION": 14.24178239, "ECCENTRICITY": 0.00538671, "INCLINATION": 98.723, "RA_OF_ASC_NODE": 46.3522, "ARG_OF_PERICENTER": 231.5778, "MEAN_ANOMALY": 192.7006, "EPHEMERIS_TYPE": 0, "CLASSIFICATION_TYPE": "U", "NORAD_CAT_ID": 37926, "ELEMENT_SET_NO": 999, "REV_AT_EPOCH": 74219, "BSTAR": 0.001883513, "MEAN_MOTION_DOT": 4.363e-05, "MEAN_MOTION_DDOT": 0}, "tle": {"line1": "1 37926U 99025EPB 25343.15582623  .00004363  00000+0  18835-2 0  9993", "line2": "2 37926  98.7230  46.3522 0053867 231.5778 192.7006 14.24178239742191"}}, "geometry": {"type": "Point", "coordinates": [127.13550568787346, -81.14020967122308]}}, {"type": "Feature", "properties": {"norad_id": 37927, "name": "FENGYUN 1C DEB", "group": "fengyun-1c-debris", "lat": 64.74318650007324, "lon": -33.46197033067765, "alt_km": 655.3540026555856, "timestamp": "2025-12-09T21:34:11.697769+00:00", "meta": {"OBJECT_NAME": "FENGYUN 1C DEB", "OBJECT_ID": "1999-025EPC", "EPOCH": "2025-12-08T15:40:42.564288", "MEAN_MOTION": 14.71415555, "ECCENTRICITY": 0.0007916, "INCLINATION": 98.8087, "RA_OF_ASC_NODE": 126.0022, "ARG_OF_PERICENTER": 283.7555, "MEAN_ANOMALY": 76.2768, "EPHEMERIS_TYPE": 0, "CLASSIFICATION_TYPE": "U", "NORAD_CAT_ID": 37927, "ELEMENT_SET_NO": 999, "REV_AT_EPOCH": 65056, "BSTAR": 0.0054829, "MEAN_MOTION_DOT": 0.00034083, "MEAN_MOTION_DDOT": 0}, "tle": {"line1": "1 37927U 99025EPC 25342.65327042  .00034083  00000+0  54829-2 0  9995", "line2": "2 37927  98.8087 126.0022 0007916 283.7555  76.2768 14.71415555650567"}}, "geometry": {"type": "Point", "coordinates": [-33.46197033067765, 64.74318650007324]}}, {"type": "Feature", "properties": {"norad_id": 37928, "name": "FENGYUN 1C DEB", "group": "fengyun-1c-debris", "lat": 44.693510647717744, "lon": -150.54311141865068, "alt_km": 711.9138177024042, "timestamp": "2025-12-09T21:34:11.697779+00:00", "meta": {"OBJECT_NAME": "FENGYUN 1C DEB", "OBJECT_ID": "1999-025EPD", "EPOCH": "2025-12-05T22:06:55.639584", "MEAN_MOTION": 14.37064476, "ECCENTRICITY": 0.0073466, "INCLINATION": 98.9156, "RA_OF_ASC_NODE": 214.2722, "ARG_OF_PERICENTER": 52.9241, "MEAN_ANOMALY": 307.8631, "EPHEMERIS_TYPE": 0, "CLASSIFICATION_TYPE": "U", "NORAD_CAT_ID": 37928, "ELEMENT_SET_NO": 999, "REV_AT_EPOCH": 81094, "BSTAR": 0.0011316154, "MEAN_MOTION_DOT": 3.419e-05, "MEAN_MOTION_DDOT": 0}, "tle": {"line1": "1 37928U 99025EPD 25339.92147731  .00003419  00000+0  11316-2 0  9990", "line2": "2 37928  98.9156 214.2722 0073466  52.9241 307.8631 14.37064476810940"}}, "geometry": {"type": "Point", "coordinates": [-150.54311141865068, 44.693510647717744]}}, {"type": "Feature", "properties": {"norad_id": 38116, "name": "FENGYUN 1C DEB", "group": "fengyun-1c-debris", "lat": -81.22589456223778, "lon": 106.20013460293185, "alt_km": 865.6677106091238, "timestamp": "2025-12-09T21:34:11.697789+00:00", "meta": {"OBJECT_NAME": "FENGYUN 1C DEB", "OBJECT_ID": "1999-025EPM", "EPOCH": "2025-12-08T08:47:29.846688", "MEAN_MOTION": 14.17004131, "ECCENTRICITY": 0.00723814, "INCLINATION": 98.7133, "RA_OF_ASC_NODE": 21.1884, "ARG_OF_PERICENTER": 159.0546, "MEAN_ANOMALY": 218.3187, "EPHEMERIS_TYPE": 0, "CLASSIFICATION_TYPE": "U", "NORAD_CAT_ID": 38116, "ELEMENT_SET_NO": 999, "REV_AT_EPOCH": 64423, "BSTAR": 0.00087094708, "MEAN_MOTION_DOT": 1.753e-05, "MEAN_MOTION_DDOT": 0}, "tle": {"line1": "1 38116U 99025EPM 25342.36631767  .00001753  00000+0  87095-3 0  9996", "line2": "2 38116  98.7133  21.1884 0072381 159.0546 218.3187 14.17004131644238"}}, "geometry": {"type": "Point", "coordinates": [106.20013460293185, -81.22589456223778]}}, {"type": "Feature", "properties": {"norad_id": 38121, "name": "FENGYUN 1C DEB", "group": "fengyun-1c-debris", "lat": 45.428676612741086, "lon": -35.339709961044726, "alt_km": 666.8848002271861, "timestamp": "2025-12-09T21:34:11.697800+00:00", "meta": {"OBJECT_NAME": "FENGYUN 1C DEB", "OBJECT_ID": "1999-025EPS", "EPOCH": "2025-12-08T16:14:11.802336", "MEAN_MOTION": 14.21730691, "ECCENTRICITY": 0.02065692, "INCLINATION": 99.1162, "RA_OF_ASC_NODE": 134.0169, "ARG_OF_PERICENTER": 139.2836, "MEAN_ANOMALY": 222.399, "EPHEMERIS_TYPE": 0, "CLASSIFICATION_TYPE": "U", "NORAD_CAT_ID": 38121, "ELEMENT_SET_NO": 999, "REV_AT_EPOCH": 83862, "BSTAR": 0.0018514385, "MEAN_MOTION_DOT": 5.011e-05, "MEAN_MOTION_DDOT": 0}, "tle": {"line1": "1 38121U 99025EPS 25342.67652549  .00005011  00000+0  18514-2 0  9997", "line2": "2 38121  99.1162 134.0169 0206569 139.2836 222.3990 14.21730691838627"}}, "geometry": {"type": "Point", "coordinates": [-35.339709961044726, 45.428676612741086]}}]}